[{"OBJECT_NAME":"STARLINK-6272","OBJECT_ID":"2023-061AY","EPOCH":"2026-03-09T08:44:19.854816","MEAN_MOTION":15.02533117,"ECCENTRICITY":0.00013774,"INCLINATION":43.0031,"RA_OF_ASC_NODE":173.4005,"ARG_OF_PERICENTER":264.9211,"MEAN_ANOMALY":95.1474,"EPHEMERIS_TYPE":0,"CLASSIFICATION_TYPE":"U","NORAD_CAT_ID":56420,"ELEMENT_SET_NO":999,"REV_AT_EPOCH":15700,"BSTAR":-4.6603487e-5,"MEAN_MOTION_DOT":-8.33e-6,"MEAN_MOTION_DDOT":0},{"OBJECT_NAME":"CZ-4C R\/B","OBJECT_ID":"2018-043B","EPOCH":"2026-03-09T16:58:49.840320","MEAN_MOTION":14.86896347,"ECCENTRICITY":0.00868429,"INCLINATION":98.1687,"RA_OF_ASC_NODE":134.0913,"ARG_OF_PERICENTER":153.5979,"MEAN_ANOMALY":206.9701,"EPHEMERIS_TYPE":0,"CLASSIFICATION_TYPE":"U","NORAD_CAT_ID":43462,"ELEMENT_SET_NO":999,"REV_AT_EPOCH":42398,"BSTAR":0.00015965796,"MEAN_MOTION_DOT":1.463e-5,"MEAN_MOTION_DDOT":0}]
